start=new Date('2022-06-08T00:00:00.000Z').valueOf();
sats=[{"INCLINATION":"53.0566","LAUNCH_DATE":"2021-02-16","SEMIMAJOR_AXIS":"6925.342","EPHEMERIS_TYPE":"0","TLE_LINE2":"2 47665  53.0566  81.0000 0001590  83.8475 276.2695 15.06402128 73707","CENTER_NAME":"EARTH","ARG_OF_PERICENTER":"83.8475","TLE_LINE1":"1 47665U 21012AX  22158.76221367  .00000656  00000-0  62952-4 0  9991","NORAD_CAT_ID":"47665","PERIOD":"95.592","DECAY_DATE":null,"MEAN_MOTION":"15.06402128","COUNTRY_CODE":"US","REF_FRAME":"TEME","PERIAPSIS":"546.106","MEAN_MOTION_DOT":"0.00000656","REV_AT_EPOCH":"7370","MEAN_ANOMALY":"276.2695","BSTAR":"0.00006295200000","CLASSIFICATION_TYPE":"U","APOAPSIS":"548.308","GP_ID":"205595399","FILE":"3485136","MEAN_ELEMENT_THEORY":"SGP4","RA_OF_ASC_NODE":"81.0000","EPOCH":"2022-06-07T18:17:35.261088","OBJECT_NAME":"STARLINK-2056","SITE":"AFETR","OBJECT_TYPE":"PAYLOAD","ECCENTRICITY":"0.00015900","ELEMENT_SET_NO":"999","TIME_SYSTEM":"UTC","RCS_SIZE":"LARGE","OBJECT_ID":"2021-012AX","MEAN_MOTION_DDOT":"0.0000000000000"},{"DECAY_DATE":null,"PERIOD":"95.747","NORAD_CAT_ID":"47666","TLE_LINE1":"1 47666U 21012AY  22158.75397853 -.00000482  00000-0 -14809-4 0  9992","ARG_OF_PERICENTER":"62.4679","CENTER_NAME":"EARTH","TLE_LINE2":"2 47666  53.0550  81.2989 0002214  62.4679 297.6534 15.03956682 73707","LAUNCH_DATE":"2021-02-16","EPHEMERIS_TYPE":"0","SEMIMAJOR_AXIS":"6932.847","INCLINATION":"53.0550","APOAPSIS":"556.247","BSTAR":"-0.00001480900000","CLASSIFICATION_TYPE":"U","MEAN_ANOMALY":"297.6534","REV_AT_EPOCH":"7370","MEAN_MOTION_DOT":"-0.00000482","PERIAPSIS":"553.177","REF_FRAME":"TEME","COUNTRY_CODE":"US","MEAN_MOTION":"15.03956682","OBJECT_TYPE":"PAYLOAD","SITE":"AFETR","OBJECT_NAME":"STARLINK-2057","EPOCH":"2022-06-07T18:05:43.744992","RA_OF_ASC_NODE":"81.2989","MEAN_ELEMENT_THEORY":"SGP4","FILE":"3485136","GP_ID":"205595144","MEAN_MOTION_DDOT":"0.0000000000000","OBJECT_ID":"2021-012AY","RCS_SIZE":"LARGE","TIME_SYSTEM":"UTC","ELEMENT_SET_NO":"999","ECCENTRICITY":"0.00022140"},{"FILE":"3485136","GP_ID":"205593900","OBJECT_NAME":"STARLINK-2058","OBJECT_TYPE":"PAYLOAD","SITE":"AFETR","MEAN_ELEMENT_THEORY":"SGP4","RA_OF_ASC_NODE":"105.4388","EPOCH":"2022-06-07T21:06:45.951264","TIME_SYSTEM":"UTC","ELEMENT_SET_NO":"999","ECCENTRICITY":"0.00023560","OBJECT_ID":"2021-012AZ","MEAN_MOTION_DDOT":"0.0000000000000","RCS_SIZE":"LARGE","LAUNCH_DATE":"2021-02-16","SEMIMAJOR_AXIS":"6925.337","EPHEMERIS_TYPE":"0","TLE_LINE2":"2 47667  53.0556 105.4388 0002356  56.7769 303.3445 15.06403916 73356","INCLINATION":"53.0556","NORAD_CAT_ID":"47667","PERIOD":"95.592","DECAY_DATE":null,"CENTER_NAME":"EARTH","ARG_OF_PERICENTER":"56.7769","TLE_LINE1":"1 47667U 21012AZ  22158.87969851  .00000017  00000-0  20058-4 0  9994","PERIAPSIS":"545.570","MEAN_MOTION":"15.06403916","COUNTRY_CODE":"US","REF_FRAME":"TEME","REV_AT_EPOCH":"7335","MEAN_MOTION_DOT":"0.00000017","BSTAR":"0.00002005800000","CLASSIFICATION_TYPE":"U","MEAN_ANOMALY":"303.3445","APOAPSIS":"548.833"},{"MEAN_MOTION":"15.06406025","REF_FRAME":"TEME","COUNTRY_CODE":"US","PERIAPSIS":"545.742","CLASSIFICATION_TYPE":"U","BSTAR":"0.00014356000000","MEAN_ANOMALY":"295.3723","MEAN_MOTION_DOT":"0.00001858","REV_AT_EPOCH":"7308","APOAPSIS":"548.648","INCLINATION":"53.0553","TLE_LINE2":"2 47668  53.0553  87.0172 0002098  64.7483 295.3723 15.06406025 73088","LAUNCH_DATE":"2021-02-16","SEMIMAJOR_AXIS":"6925.330","EPHEMERIS_TYPE":"0","CENTER_NAME":"EARTH","ARG_OF_PERICENTER":"64.7483","TLE_LINE1":"1 47668U 21012BA  22158.52400603  .00001858  00000-0  14356-3 0  9999","PERIOD":"95.592","NORAD_CAT_ID":"47668","DECAY_DATE":null,"ELEMENT_SET_NO":"999","ECCENTRICITY":"0.00020980","TIME_SYSTEM":"UTC","RCS_SIZE":"LARGE","OBJECT_ID":"2021-012BA","MEAN_MOTION_DDOT":"0.0000000000000","GP_ID":"205536653","FILE":"3484677","RA_OF_ASC_NODE":"87.0172","MEAN_ELEMENT_THEORY":"SGP4","EPOCH":"2022-06-07T12:34:34.120992","SITE":"AFETR","OBJECT_TYPE":"PAYLOAD","OBJECT_NAME":"STARLINK-2059"},{"FILE":"3485136","GP_ID":"205594899","OBJECT_NAME":"STARLINK-2060","SITE":"AFETR","OBJECT_TYPE":"PAYLOAD","EPOCH":"2022-06-07T14:41:47.850432","MEAN_ELEMENT_THEORY":"SGP4","RA_OF_ASC_NODE":"11.1672","TIME_SYSTEM":"UTC","ECCENTRICITY":"0.00027190","ELEMENT_SET_NO":"999","MEAN_MOTION_DDOT":"0.0000000000000","OBJECT_ID":"2021-012BB","RCS_SIZE":"LARGE","LAUNCH_DATE":"2021-02-16","SEMIMAJOR_AXIS":"6918.854","EPHEMERIS_TYPE":"0","TLE_LINE2":"2 47669  53.0558  11.1672 0002719 127.3654 232.7584 15.08521686 74649","INCLINATION":"53.0558","DECAY_DATE":null,"NORAD_CAT_ID":"47669","PERIOD":"95.458","TLE_LINE1":"1 47669U 21012BB  22158.61235938  .00007755  00000-0  50911-3 0  9996","ARG_OF_PERICENTER":"127.3654","CENTER_NAME":"EARTH","PERIAPSIS":"538.837","COUNTRY_CODE":"US","REF_FRAME":"TEME","MEAN_MOTION":"15.08521686","APOAPSIS":"542.600","REV_AT_EPOCH":"7464","MEAN_MOTION_DOT":"0.00007755","CLASSIFICATION_TYPE":"U","BSTAR":"0.00050911000000","MEAN_ANOMALY":"232.7584"},{"TIME_SYSTEM":"UTC","ECCENTRICITY":"0.00034110","ELEMENT_SET_NO":"999","MEAN_MOTION_DDOT":"0.0000000000000","OBJECT_ID":"2021-012BC","RCS_SIZE":"LARGE","FILE":"3484919","GP_ID":"205563643","SITE":"AFETR","OBJECT_TYPE":"PAYLOAD","OBJECT_NAME":"STARLINK-2062","EPOCH":"2022-06-07T04:58:06.668832","RA_OF_ASC_NODE":"88.4348","MEAN_ELEMENT_THEORY":"SGP4","PERIAPSIS":"544.863","REF_FRAME":"TEME","COUNTRY_CODE":"US","MEAN_MOTION":"15.06396166","APOAPSIS":"549.588","BSTAR":"0.00002122600000","CLASSIFICATION_TYPE":"U","MEAN_ANOMALY":"308.1539","MEAN_MOTION_DOT":"0.00000034","REV_AT_EPOCH":"7354","TLE_LINE2":"2 47670  53.0556  88.4348 0003411  51.9758 308.1539 15.06396166 73540","LAUNCH_DATE":"2021-02-16","SEMIMAJOR_AXIS":"6925.360","EPHEMERIS_TYPE":"0","INCLINATION":"53.0556","DECAY_DATE":null,"PERIOD":"95.592","NORAD_CAT_ID":"47670","TLE_LINE1":"1 47670U 21012BC  22158.20702163  .00000034  00000-0  21226-4 0  9993","ARG_OF_PERICENTER":"51.9758","CENTER_NAME":"EARTH"},{"RCS_SIZE":"LARGE","OBJECT_ID":"2021-012BD","MEAN_MOTION_DDOT":"0.0000000000000","ECCENTRICITY":"0.00019190","ELEMENT_SET_NO":"999","TIME_SYSTEM":"UTC","RA_OF_ASC_NODE":"87.0317","MEAN_ELEMENT_THEORY":"SGP4","EPOCH":"2022-06-07T12:29:15.188352","SITE":"AFETR","OBJECT_TYPE":"PAYLOAD","OBJECT_NAME":"STARLINK-2064","GP_ID":"205564392","FILE":"3484919","BSTAR":"0.00012143000000","CLASSIFICATION_TYPE":"U","MEAN_ANOMALY":"290.4611","MEAN_MOTION_DOT":"0.00001528","REV_AT_EPOCH":"7360","APOAPSIS":"548.521","MEAN_MOTION":"15.06407176","REF_FRAME":"TEME","COUNTRY_CODE":"US","PERIAPSIS":"545.863","CENTER_NAME":"EARTH","ARG_OF_PERICENTER":"69.6584","TLE_LINE1":"1 47671U 21012BD  22158.52031468  .00001528  00000-0  12143-3 0  9998","PERIOD":"95.592","NORAD_CAT_ID":"47671","DECAY_DATE":null,"INCLINATION":"53.0546","TLE_LINE2":"2 47671  53.0546  87.0317 0001919  69.6584 290.4611 15.06407176 73600","LAUNCH_DATE":"2021-02-16","SEMIMAJOR_AXIS":"6925.327","EPHEMERIS_TYPE":"0"},{"CENTER_NAME":"EARTH","ARG_OF_PERICENTER":"69.2685","TLE_LINE1":"1 47672U 21012BE  22158.49912857  .00001125  00000-0  94392-4 0  9995","NORAD_CAT_ID":"47672","PERIOD":"95.592","DECAY_DATE":null,"INCLINATION":"53.0572","SEMIMAJOR_AXIS":"6925.346","LAUNCH_DATE":"2021-02-16","EPHEMERIS_TYPE":"0","TLE_LINE2":"2 47672  53.0572  77.1341 0001597  69.2685 290.8475 15.06400704 73711","REV_AT_EPOCH":"7371","MEAN_MOTION_DOT":"0.00001125","BSTAR":"0.00009439200000","CLASSIFICATION_TYPE":"U","MEAN_ANOMALY":"290.8475","APOAPSIS":"548.317","MEAN_MOTION":"15.06400704","COUNTRY_CODE":"US","REF_FRAME":"TEME","PERIAPSIS":"546.105","MEAN_ELEMENT_THEORY":"SGP4","RA_OF_ASC_NODE":"77.1341","EPOCH":"2022-06-07T11:58:44.708448","OBJECT_NAME":"STARLINK-2065","SITE":"AFETR","OBJECT_TYPE":"PAYLOAD","GP_ID":"205565141","FILE":"3484919","RCS_SIZE":"LARGE","OBJECT_ID":"2021-012BE","MEAN_MOTION_DDOT":"0.0000000000000","ECCENTRICITY":"0.00015970","ELEMENT_SET_NO":"999","TIME_SYSTEM":"UTC"},{"FILE":"3484919","GP_ID":"205565391","OBJECT_TYPE":"PAYLOAD","SITE":"AFETR","OBJECT_NAME":"STARLINK-2066","RA_OF_ASC_NODE":"88.4405","MEAN_ELEMENT_THEORY":"SGP4","EPOCH":"2022-06-07T05:03:24.753024","TIME_SYSTEM":"UTC","ECCENTRICITY":"0.00021170","ELEMENT_SET_NO":"999","OBJECT_ID":"2021-012BF","MEAN_MOTION_DDOT":"0.0000000000000","RCS_SIZE":"LARGE","TLE_LINE2":"2 47673  53.0571  88.4405 0002117  55.7182 304.4007 15.06395072 73543","SEMIMAJOR_AXIS":"6925.364","LAUNCH_DATE":"2021-02-16","EPHEMERIS_TYPE":"0","INCLINATION":"53.0571","PERIOD":"95.592","NORAD_CAT_ID":"47673","DECAY_DATE":null,"CENTER_NAME":"EARTH","TLE_LINE1":"1 47673U 21012BF  22158.21070316  .00000300  00000-0  39082-4 0  9990","ARG_OF_PERICENTER":"55.7182","PERIAPSIS":"545.763","MEAN_MOTION":"15.06395072","REF_FRAME":"TEME","COUNTRY_CODE":"US","MEAN_ANOMALY":"304.4007","BSTAR":"0.00003908200000","CLASSIFICATION_TYPE":"U","REV_AT_EPOCH":"7354","MEAN_MOTION_DOT":"0.00000300","APOAPSIS":"548.695"},{"DECAY_DATE":null,"PERIOD":"95.592","NORAD_CAT_ID":"47674","TLE_LINE1":"1 47674U 21012BG  22158.22544746 -.00000956  00000-0 -45287-4 0  9998","ARG_OF_PERICENTER":"66.7309","CENTER_NAME":"EARTH","TLE_LINE2":"2 47674  53.0565  88.3517 0002007  66.7309 293.3891 15.06396642 73553","LAUNCH_DATE":"2021-02-16","EPHEMERIS_TYPE":"0","SEMIMAJOR_AXIS":"6925.359","INCLINATION":"53.0565","APOAPSIS":"548.614","BSTAR":"-0.00004528700000","MEAN_ANOMALY":"293.3891","CLASSIFICATION_TYPE":"U","REV_AT_EPOCH":"7355","MEAN_MOTION_DOT":"-0.00000956","PERIAPSIS":"545.834","REF_FRAME":"TEME","COUNTRY_CODE":"US","MEAN_MOTION":"15.06396642","OBJECT_TYPE":"PAYLOAD","SITE":"AFETR","OBJECT_NAME":"STARLINK-2067","EPOCH":"2022-06-07T05:24:38.660544","RA_OF_ASC_NODE":"88.3517","MEAN_ELEMENT_THEORY":"SGP4","FILE":"3484919","GP_ID":"205564143","MEAN_MOTION_DDOT":"0.0000000000000","OBJECT_ID":"2021-012BG","RCS_SIZE":"LARGE","TIME_SYSTEM":"UTC","ELEMENT_SET_NO":"999","ECCENTRICITY":"0.00020070"}];
